[{"OBJECT_NAME":"IRIDIUM 128","OBJECT_ID":"2017-039J","EPOCH":"2026-03-09T22:17:06.660384","MEAN_MOTION":14.3421733,"ECCENTRICITY":0.00019867,"INCLINATION":86.3911,"RA_OF_ASC_NODE":66.6445,"ARG_OF_PERICENTER":95.0823,"MEAN_ANOMALY":265.0599,"EPHEMERIS_TYPE":0,"CLASSIFICATION_TYPE":"U","NORAD_CAT_ID":42811,"ELEMENT_SET_NO":999,"REV_AT_EPOCH":45575,"BSTAR":-1.154861e-5,"MEAN_MOTION_DOT":-1.3e-7,"MEAN_MOTION_DDOT":0},{"OBJECT_NAME":"CZ-6A DEB","OBJECT_ID":"2024-140QA","EPOCH":"2026-03-09T14:11:47.887008","MEAN_MOTION":14.41660175,"ECCENTRICITY":0.004202,"INCLINATION":88.9788,"RA_OF_ASC_NODE":282.7092,"ARG_OF_PERICENTER":332.465,"MEAN_ANOMALY":27.4326,"EPHEMERIS_TYPE":0,"CLASSIFICATION_TYPE":"U","NORAD_CAT_ID":61132,"ELEMENT_SET_NO":999,"REV_AT_EPOCH":8112,"BSTAR":0.0012266,"MEAN_MOTION_DOT":4.051e-5,"MEAN_MOTION_DDOT":0}]
